{
"type": "FeatureCollection",
"name": "Sample_PropertiGo_WebGIS2026",
"crs": { "type": "name", "properties": { "name": "urn:ogc:def:crs:OGC:1.3:CRS84" } },
"features": [
{ "type": "Feature", "properties": { "Kategori Properti": "Coworking Space", "Jenis Properti": "Disewa", " Tanggal": "2026-02-22", "Alamat": "Jalan PH. H. Mustofa No 65 (Suci), Sukapada, Cibeunying Kidul, Kota Bandung, Indonesia", "Foto Tampak Depan": "https://mapidstorage.s3.ap-southeast-1.amazonaws.com/general_image/mamang_devops/1771719271177_scaled_1000157219.jpg", "Foto Spanduk/Papan Promosi": "https://mapidstorage.s3.ap-southeast-1.amazonaws.com/general_image/mamang_devops/1771719275600_scaled_1000157224.webp", "Latitude": -6.9000540001897122, "Longitude": 107.64424857724595 }, "geometry": { "type": "Point", "coordinates": [ 107.644248577245946, -6.900054000189712 ] } },
{ "type": "Feature", "properties": { "Kategori Properti": "Gudang", "Jenis Properti": "Dijual", " Tanggal": "2026-02-28", "Alamat": "Jalan Sumber Endah I, Babakan Ciparay, Babakan Ciparay, Kota Bandung, Indonesia", "Foto Tampak Depan": "https://mapidstorage.s3.ap-southeast-1.amazonaws.com/general_image/egipratama/1772252915380_stamped_1772252913623.jpg", "Foto Spanduk/Papan Promosi": "https://mapidstorage.s3.ap-southeast-1.amazonaws.com/general_image/egipratama/1772252942578_stamped_1772252940466.jpg", "Latitude": -6.9376806559060071, "Longitude": 107.57656195273472 }, "geometry": { "type": "Point", "coordinates": [ 107.576561952734721, -6.937680655906007 ] } },
{ "type": "Feature", "properties": { "Kategori Properti": "Gudang", "Jenis Properti": "Disewa", " Tanggal": "2026-03-02", "Alamat": "Jalan Sederhana 8-10, Pasteur Sukajadi Kota Bandung Jawa Barat, Pasteur, Sukasari, Kota Bandung, Indonesia", "Foto Tampak Depan": "https://mapidstorage.s3.ap-southeast-1.amazonaws.com/general_image/bagusid/1772417185278_stamped_1772417182445.jpg", "Foto Spanduk/Papan Promosi": "https://mapidstorage.s3.ap-southeast-1.amazonaws.com/general_image/bagusid/1772417198337_stamped_1772417196239.jpg", "Latitude": -6.8947458604572489, "Longitude": 107.59820625795328 }, "geometry": { "type": "Point", "coordinates": [ 107.598206257953279, -6.894745860457249 ] } },
{ "type": "Feature", "properties": { "Kategori Properti": "Kantor", "Jenis Properti": "Dijual", " Tanggal": "2026-04-17", "Alamat": "Jalan Tamblong 48-50, Kebon Pisang Bandung Jawa Barat, Kebon Pisang, Sumur Bandung, Kota Bandung, Indonesia", "Foto Tampak Depan": "https://mapidstorage.s3.ap-southeast-1.amazonaws.com/general_image/bagusid/1776389749257_stamped_1776389746855.jpg", "Foto Spanduk/Papan Promosi": "https://mapidstorage.s3.ap-southeast-1.amazonaws.com/general_image/bagusid/1776389756737_stamped_1776389754937.jpg", "Latitude": -6.9203431900936323, "Longitude": 107.61232393131263 }, "geometry": { "type": "Point", "coordinates": [ 107.612323931312631, -6.920343190093632 ] } },
{ "type": "Feature", "properties": { "Kategori Properti": "Kantor", "Jenis Properti": "Disewa", " Tanggal": "2026-04-19", "Alamat": "Jalan Merdeka 28, Babakan Ciamis Sumur Bandung Kota Bandung Jawa Barat, Babakan Ciamis, Sumur Bandung, Kota Bandung, Indonesia", "Foto Tampak Depan": "https://mapidstorage.s3.ap-southeast-1.amazonaws.com/general_image/bagusid/1776571908098_stamped_1776571898475.jpg", "Foto Spanduk/Papan Promosi": "https://mapidstorage.s3.ap-southeast-1.amazonaws.com/general_image/bagusid/1776571923643_stamped_1776571911828.jpg", "Latitude": -6.912045328366645, "Longitude": 107.610581518495 }, "geometry": { "type": "Point", "coordinates": [ 107.610581518494996, -6.912045328366645 ] } },
{ "type": "Feature", "properties": { "Kategori Properti": "Kos", "Jenis Properti": "Dijual", " Tanggal": "2026-02-15", "Alamat": "Jalan Ikhlas VI, Panyileukan Regency, Cipadung Kidul, Panyileukan, Kota Bandung, Indonesia", "Foto Tampak Depan": "https://mapidstorage.s3.ap-southeast-1.amazonaws.com/general_image/dwidwi/1771115315267_scaled_1000092951.jpg", "Foto Spanduk/Papan Promosi": "https://mapidstorage.s3.ap-southeast-1.amazonaws.com/general_image/dwidwi/1771115320310_scaled_1000092952.jpg", "Latitude": -6.9448298448566561, "Longitude": 107.71425240000923 }, "geometry": { "type": "Point", "coordinates": [ 107.714252400009229, -6.944829844856656 ] } },
{ "type": "Feature", "properties": { "Kategori Properti": "Kos", "Jenis Properti": "Disewa", " Tanggal": "2026-04-19", "Alamat": "Jalan Ir. H. Djuanda 216b, Cisitu Lama, Dago, Coblong, Kota Bandung, Indonesia", "Foto Tampak Depan": "https://mapidstorage.s3.ap-southeast-1.amazonaws.com/general_image/bagusid/1776569103952_stamped_1776569102089.jpg", "Foto Spanduk/Papan Promosi": "https://mapidstorage.s3.ap-southeast-1.amazonaws.com/general_image/bagusid/1776569111269_stamped_1776569109590.jpg", "Latitude": -6.8821412280884431, "Longitude": 107.61536238989561 }, "geometry": { "type": "Point", "coordinates": [ 107.615362389895608, -6.882141228088443 ] } },
{ "type": "Feature", "properties": { "Kategori Properti": "Restoran", "Jenis Properti": "Disewa", " Tanggal": "2026-02-21", "Alamat": "Jalan Abdul Haris Nasution 21, Kel. Pakemitan, Pakemitan, Cinambo, Kota Bandung, Indonesia", "Foto Tampak Depan": "https://mapidstorage.s3.ap-southeast-1.amazonaws.com/general_image/mamang_devops/1771666366638_scaled_1000156774.jpg", "Foto Spanduk/Papan Promosi": "https://mapidstorage.s3.ap-southeast-1.amazonaws.com/general_image/mamang_devops/1771666365393_scaled_1000156775.jpg", "Latitude": -6.9137439861992078, "Longitude": 107.69570713287311 }, "geometry": { "type": "Point", "coordinates": [ 107.69570713287311, -6.913743986199208 ] } },
{ "type": "Feature", "properties": { "Kategori Properti": "Retail (toko baju, peralatan olahraga, toko elektronik, dll)", "Jenis Properti": "Disewa", " Tanggal": "2026-02-22", "Alamat": "Jalan PH. H. Mustofa 23, Kel. Padasuka, Padasuka, Cibeunying Kidul, Kota Bandung, Indonesia", "Foto Tampak Depan": "https://mapidstorage.s3.ap-southeast-1.amazonaws.com/general_image/mamang_devops/1771718682467_scaled_1000157207.jpg", "Foto Spanduk/Papan Promosi": "https://mapidstorage.s3.ap-southeast-1.amazonaws.com/general_image/mamang_devops/1771718687373_scaled_1000157208.jpg", "Latitude": -6.9005011696734897, "Longitude": 107.64531174967914 }, "geometry": { "type": "Point", "coordinates": [ 107.645311749679138, -6.90050116967349 ] } },
{ "type": "Feature", "properties": { "Kategori Properti": "Retail FnB", "Jenis Properti": "Disewa", " Tanggal": "2026-04-17", "Alamat": "Jalan Naripan 79, Sumur Bandung Kota Bandung Jawa Barat, Kebon Pisang, Sumur Bandung, Kota Bandung, Indonesia", "Foto Tampak Depan": "https://mapidstorage.s3.ap-southeast-1.amazonaws.com/general_image/mapid.database/1776652249490_img_%25rumah2_%25f2fe261e-704f-42c8-b3b7-f1e118fff11f.png", "Foto Spanduk/Papan Promosi": "https://mapidstorage.s3.ap-southeast-1.amazonaws.com/general_image/bagusid/1776389479765_stamped_1776389476848.jpg", "Latitude": -6.9206424814147454, "Longitude": 107.61430537913077 }, "geometry": { "type": "Point", "coordinates": [ 107.614305379130769, -6.920642481414745 ] } },
{ "type": "Feature", "properties": { "Kategori Properti": "Ruko", "Jenis Properti": "Dijual", " Tanggal": "2026-05-16", "Alamat": "Gang sereh 83/9b, Bandung Jawa Barat, Cibadak, Astanaanyar, Kota Bandung, Indonesia", "Foto Tampak Depan": "https://mapidstorage.s3.ap-southeast-1.amazonaws.com/general_image/undefined/1778904026344_stamped_1778904021815.jpg", "Foto Spanduk/Papan Promosi": "https://mapidstorage.s3.ap-southeast-1.amazonaws.com/general_image/undefined/1778904041172_stamped_1778904034712.jpg", "Latitude": -6.9227094865698149, "Longitude": 107.59847118270989 }, "geometry": { "type": "Point", "coordinates": [ 107.598471182709886, -6.922709486569815 ] } },
{ "type": "Feature", "properties": { "Kategori Properti": "Ruko", "Jenis Properti": "Disewa", " Tanggal": "2026-05-19", "Alamat": "Jalan Otto Iskandardinata 81, Bandung Jawa Barat, Braga, Sumur Bandung, Kota Bandung, Indonesia", "Foto Tampak Depan": "https://mapidstorage.s3.ap-southeast-1.amazonaws.com/general_image/undefined/1779188753926_stamped_1779188748243.jpg", "Foto Spanduk/Papan Promosi": "https://mapidstorage.s3.ap-southeast-1.amazonaws.com/general_image/undefined/1779188773330_stamped_1779188768567.jpg", "Latitude": -6.9185045865899326, "Longitude": 107.60428688276784 }, "geometry": { "type": "Point", "coordinates": [ 107.604286882767838, -6.918504586589933 ] } },
{ "type": "Feature", "properties": { "Kategori Properti": "Rumah", "Jenis Properti": "Dijual", " Tanggal": "2026-05-19", "Alamat": "Jalan Pak Gatot I No.16, Gegerkalong Sukasari Bandung City West Java, Gegerkalong, Sukajadi, Kota Bandung, Indonesia", "Foto Tampak Depan": "https://mapidstorage.s3.ap-southeast-1.amazonaws.com/general_image/undefined/1779186104400_stamped_1779186094249.jpg", "Foto Spanduk/Papan Promosi": "https://mapidstorage.s3.ap-southeast-1.amazonaws.com/general_image/undefined/1779186125451_stamped_1779186120743.jpg", "Latitude": -6.8684061865215682, "Longitude": 107.58872448274218 }, "geometry": { "type": "Point", "coordinates": [ 107.58872448274218, -6.868406186521568 ] } },
{ "type": "Feature", "properties": { "Kategori Properti": "Rumah", "Jenis Properti": "Disewa", " Tanggal": "2026-05-07", "Alamat": "Jalan Surapati 61, Cihapit Bandung Wetan Bandung Jawa Barat, Cihaurgeulis, Coblong, Kota Bandung, Indonesia", "Foto Tampak Depan": "https://mapidstorage.s3.ap-southeast-1.amazonaws.com/general_image/undefined/1778119931442_stamped_1778119926113.jpg", "Foto Spanduk/Papan Promosi": "https://mapidstorage.s3.ap-southeast-1.amazonaws.com/general_image/undefined/1778119961816_stamped_1778119942046.jpg", "Latitude": -6.8993307414781384, "Longitude": 107.62341123244425 }, "geometry": { "type": "Point", "coordinates": [ 107.623411232444255, -6.899330741478138 ] } },
{ "type": "Feature", "properties": { "Kategori Properti": "Tanah", "Jenis Properti": "Dijual", " Tanggal": "2026-05-13", "Alamat": "Jalan Walagri Mulya, Pasanggrahan Indah Blok 27, Pasanggrahan, Ujungberung, Kota Bandung, Indonesia", "Foto Tampak Depan": "https://mapidstorage.s3.ap-southeast-1.amazonaws.com/general_image/undefined/1778637322706_stamped_1778637311624.jpg", "Foto Spanduk/Papan Promosi": "https://mapidstorage.s3.ap-southeast-1.amazonaws.com/general_image/undefined/1778637339808_stamped_1778637329891.jpg", "Latitude": -6.9058794865454161, "Longitude": 107.72158118278219 }, "geometry": { "type": "Point", "coordinates": [ 107.721581182782188, -6.905879486545416 ] } }
]
}
